{"type": "FeatureCollection", "features": [ {"type": "Feature", "properties": {"norad_id": 36180, "name": "FENGYUN 1C DEB", "group": "fengyun-1c-debris", "lat": -8.722463691714887, "lon": 41.933643335393015, "alt_km": 769.296197427836, "timestamp": "2025-12-02T13:52:17.549993+00:00", "meta": {"OBJECT_NAME": "FENGYUN 1C DEB", "OBJECT_ID": "1999-025DTD", "EPOCH": "2025-11-17T22:19:25.486176", "MEAN_MOTION": 14.20613905, "ECCENTRICITY": 0.02130555, "INCLINATION": 98.4573, "RA_OF_ASC_NODE": 26.5989, "ARG_OF_PERICENTER": 102.8674, "MEAN_ANOMALY": 259.6397, "EPHEMERIS_TYPE": 0, "CLASSIFICATION_TYPE": "U", "NORAD_CAT_ID": 36180, "ELEMENT_SET_NO": 999, "REV_AT_EPOCH": 70231, "BSTAR": 0.00075960247, "MEAN_MOTION_DOT": 2.013e-05, "MEAN_MOTION_DDOT": 0}, "tle": {"line1": "1 36180U 99025DTD 25321.93015609  .00002013  00000+0  75960-3 0  9994", "line2": "2 36180  98.4573  26.5989 0213055 102.8674 259.6397 14.20613905702314"}}, "geometry": {"type": "Point", "coordinates": [41.933643335393015, -8.722463691714887]}}, {"type": "Feature", "properties": {"norad_id": 36182, "name": "FENGYUN 1C DEB", "group": "fengyun-1c-debris", "lat": 76.81803714241755, "lon": -139.49961723077598, "alt_km": 755.4074913215836, "timestamp": "2025-12-02T13:52:17.550003+00:00", "meta": {"OBJECT_NAME": "FENGYUN 1C DEB", "OBJECT_ID": "1999-025DTF", "EPOCH": "2025-12-02T01:46:52.773024", "MEAN_MOTION": 14.34573289, "ECCENTRICITY": 0.00210503, "INCLINATION": 99.0876, "RA_OF_ASC_NODE": 263.0782, "ARG_OF_PERICENTER": 105.722, "MEAN_ANOMALY": 254.6287, "EPHEMERIS_TYPE": 0, "CLASSIFICATION_TYPE": "U", "NORAD_CAT_ID": 36182, "ELEMENT_SET_NO": 999, "REV_AT_EPOCH": 87804, "BSTAR": 0.0017844539, "MEAN_MOTION_DOT": 5.007e-05, "MEAN_MOTION_DDOT": 0}, "tle": {"line1": "1 36182U 99025DTF 25336.07422191  .00005007  00000+0  17845-2 0  9998", "line2": "2 36182  99.0876 263.0782 0021050 105.7220 254.6287 14.34573289878041"}}, "geometry": {"type": "Point", "coordinates": [-139.49961723077598, 76.81803714241755]}}, {"type": "Feature", "properties": {"norad_id": 36186, "name": "FENGYUN 1C DEB", "group": "fengyun-1c-debris", "lat": -80.99190637251033, "lon": -74.53461016103537, "alt_km": 493.1903694391749, "timestamp": "2025-12-02T13:52:17.550013+00:00", "meta": {"OBJECT_NAME": "FENGYUN 1C DEB", "OBJECT_ID": "1999-025DTK", "EPOCH": "2025-11-12T08:52:41.965824", "MEAN_MOTION": 15.00729098, "ECCENTRICITY": 0.00172478, "INCLINATION": 98.9906, "RA_OF_ASC_NODE": 174.6895, "ARG_OF_PERICENTER": 41.2051, "MEAN_ANOMALY": 133.808, "EPHEMERIS_TYPE": 0, "CLASSIFICATION_TYPE": "U", "NORAD_CAT_ID": 36186, "ELEMENT_SET_NO": 999, "REV_AT_EPOCH": 61113, "BSTAR": 0.034725409, "MEAN_MOTION_DOT": 0.00466454, "MEAN_MOTION_DDOT": 0}, "tle": {"line1": "1 36186U 99025DTK 25316.36993016  .00466454  00000+0  34725-1 0  9993", "line2": "2 36186  98.9906 174.6895 0017247  41.2051 133.8080 15.00729098611137"}}, "geometry": {"type": "Point", "coordinates": [-74.53461016103537, -80.99190637251033]}}, {"type": "Feature", "properties": {"norad_id": 36188, "name": "FENGYUN 1C DEB", "group": "fengyun-1c-debris", "lat": -75.53729813836362, "lon": 112.48825007931116, "alt_km": 680.1697717944098, "timestamp": "2025-12-02T13:52:17.550024+00:00", "meta": {"OBJECT_NAME": "FENGYUN 1C DEB", "OBJECT_ID": "1999-025DTM", "EPOCH": "2025-12-01T05:20:13.473024", "MEAN_MOTION": 14.6025584, "ECCENTRICITY": 0.0047349, "INCLINATION": 98.5854, "RA_OF_ASC_NODE": 75.2295, "ARG_OF_PERICENTER": 340.7793, "MEAN_ANOMALY": 19.1618, "EPHEMERIS_TYPE": 0, "CLASSIFICATION_TYPE": "U", "NORAD_CAT_ID": 36188, "ELEMENT_SET_NO": 999, "REV_AT_EPOCH": 87884, "BSTAR": 0.002895, "MEAN_MOTION_DOT": 0.00014165, "MEAN_MOTION_DDOT": 0}, "tle": {"line1": "1 36188U 99025DTM 25335.22237816  .00014165  00000+0  28950-2 0  9992", "line2": "2 36188  98.5854  75.2295 0047349 340.7793  19.1618 14.60255840878843"}}, "geometry": {"type": "Point", "coordinates": [112.48825007931116, -75.53729813836362]}}, {"type": "Feature", "properties": {"norad_id": 36198, "name": "FENGYUN 1C DEB", "group": "fengyun-1c-debris", "lat": 52.4657719261958, "lon": -162.22691618331427, "alt_km": 794.5592145668579, "timestamp": "2025-12-02T13:52:17.550034+00:00", "meta": {"OBJECT_NAME": "FENGYUN 1C DEB", "OBJECT_ID": "1999-025DTX", "EPOCH": "2025-12-01T13:23:36.508416", "MEAN_MOTION": 14.07811916, "ECCENTRICITY": 0.00972077, "INCLINATION": 98.6251, "RA_OF_ASC_NODE": 5.4045, "ARG_OF_PERICENTER": 146.6779, "MEAN_ANOMALY": 214.0561, "EPHEMERIS_TYPE": 0, "CLASSIFICATION_TYPE": "U", "NORAD_CAT_ID": 36198, "ELEMENT_SET_NO": 999, "REV_AT_EPOCH": 63430, "BSTAR": 0.0014591366, "MEAN_MOTION_DOT": 2.541e-05, "MEAN_MOTION_DDOT": 0}, "tle": {"line1": "1 36198U 99025DTX 25335.55806144  .00002541  00000+0  14591-2 0  9996", "line2": "2 36198  98.6251   5.4045 0097207 146.6779 214.0561 14.07811916634306"}}, "geometry": {"type": "Point", "coordinates": [-162.22691618331427, 52.4657719261958]}}, {"type": "Feature", "properties": {"norad_id": 36199, "name": "FENGYUN 1C DEB", "group": "fengyun-1c-debris", "lat": -78.86165631689305, "lon": 130.41950171408084, "alt_km": 864.925866290394, "timestamp": "2025-12-02T13:52:17.550045+00:00", "meta": {"OBJECT_NAME": "FENGYUN 1C DEB", "OBJECT_ID": "1999-025DTY", "EPOCH": "2025-11-25T07:38:24.665856", "MEAN_MOTION": 14.29614285, "ECCENTRICITY": 0.00930984, "INCLINATION": 98.2914, "RA_OF_ASC_NODE": 351.2942, "ARG_OF_PERICENTER": 118.486, "MEAN_ANOMALY": 242.5739, "EPHEMERIS_TYPE": 0, "CLASSIFICATION_TYPE": "U", "NORAD_CAT_ID": 36199, "ELEMENT_SET_NO": 999, "REV_AT_EPOCH": 64731, "BSTAR": 0.00030160311, "MEAN_MOTION_DOT": 7.69e-06, "MEAN_MOTION_DDOT": 0}, "tle": {"line1": "1 36199U 99025DTY 25329.31834104  .00000769  00000+0  30160-3 0  9992", "line2": "2 36199  98.2914 351.2942 0093098 118.4860 242.5739 14.29614285647311"}}, "geometry": {"type": "Point", "coordinates": [130.41950171408084, -78.86165631689305]}}, {"type": "Feature", "properties": {"norad_id": 36203, "name": "FENGYUN 1C DEB", "group": "fengyun-1c-debris", "lat": 40.83151113388402, "lon": -88.90977872910861, "alt_km": 675.5828006906095, "timestamp": "2025-12-02T13:52:17.550055+00:00", "meta": {"OBJECT_NAME": "FENGYUN 1C DEB", "OBJECT_ID": "1999-025DUC", "EPOCH": "2025-12-02T02:18:32.511168", "MEAN_MOTION": 14.78101467, "ECCENTRICITY": 0.00828267, "INCLINATION": 99.0947, "RA_OF_ASC_NODE": 278.5034, "ARG_OF_PERICENTER": 181.911, "MEAN_ANOMALY": 178.1793, "EPHEMERIS_TYPE": 0, "CLASSIFICATION_TYPE": "U", "NORAD_CAT_ID": 36203, "ELEMENT_SET_NO": 999, "REV_AT_EPOCH": 63272, "BSTAR": 0.0013137928, "MEAN_MOTION_DOT": 0.00010006, "MEAN_MOTION_DDOT": 0}, "tle": {"line1": "1 36203U 99025DUC 25336.09620962  .00010006  00000+0  13138-2 0  9996", "line2": "2 36203  99.0947 278.5034 0082826 181.9110 178.1793 14.78101467632725"}}, "geometry": {"type": "Point", "coordinates": [-88.90977872910861, 40.83151113388402]}}, {"type": "Feature", "properties": {"norad_id": 36204, "name": "FENGYUN 1C DEB", "group": "fengyun-1c-debris", "lat": -26.408958328636054, "lon": 77.55592926259789, "alt_km": 793.5547844069133, "timestamp": "2025-12-02T13:52:17.550065+00:00", "meta": {"OBJECT_NAME": "FENGYUN 1C DEB", "OBJECT_ID": "1999-025DUD", "EPOCH": "2025-11-15T00:07:08.690880", "MEAN_MOTION": 14.34305453, "ECCENTRICITY": 0.00191329, "INCLINATION": 99.2913, "RA_OF_ASC_NODE": 54.0163, "ARG_OF_PERICENTER": 239.43, "MEAN_ANOMALY": 120.4995, "EPHEMERIS_TYPE": 0, "CLASSIFICATION_TYPE": "U", "NORAD_CAT_ID": 36204, "ELEMENT_SET_NO": 999, "REV_AT_EPOCH": 94030, "BSTAR": 0.0018806033, "MEAN_MOTION_DOT": 5.247e-05, "MEAN_MOTION_DDOT": 0}, "tle": {"line1": "1 36204U 99025DUD 25319.00496170  .00005247  00000+0  18806-2 0  9999", "line2": "2 36204  99.2913  54.0163 0019132 239.4300 120.4995 14.34305453940304"}}, "geometry": {"type": "Point", "coordinates": [77.55592926259789, -26.408958328636054]}}, {"type": "Feature", "properties": {"norad_id": 36206, "name": "FENGYUN 1C DEB", "group": "fengyun-1c-debris", "lat": 75.14776974572472, "lon": -145.6322638272345, "alt_km": 799.6266018222586, "timestamp": "2025-12-02T13:52:17.550075+00:00", "meta": {"OBJECT_NAME": "FENGYUN 1C DEB", "OBJECT_ID": "1999-025DUF", "EPOCH": "2025-11-26T07:02:56.668416", "MEAN_MOTION": 14.21517518, "ECCENTRICITY": 0.00312218, "INCLINATION": 98.4807, "RA_OF_ASC_NODE": 354.0922, "ARG_OF_PERICENTER": 66.8272, "MEAN_ANOMALY": 293.619, "EPHEMERIS_TYPE": 0, "CLASSIFICATION_TYPE": "U", "NORAD_CAT_ID": 36206, "ELEMENT_SET_NO": 999, "REV_AT_EPOCH": 64187, "BSTAR": 0.00073137291, "MEAN_MOTION_DOT": 1.568e-05, "MEAN_MOTION_DDOT": 0}, "tle": {"line1": "1 36206U 99025DUF 25330.29371144  .00001568  00000+0  73137-3 0  9999", "line2": "2 36206  98.4807 354.0922 0031221  66.8272 293.6190 14.21517518641871"}}, "geometry": {"type": "Point", "coordinates": [-145.6322638272345, 75.14776974572472]}}, {"type": "Feature", "properties": {"norad_id": 36211, "name": "FENGYUN 1C DEB", "group": "fengyun-1c-debris", "lat": 77.46776551838335, "lon": -72.27295218715544, "alt_km": 989.4480278617666, "timestamp": "2025-12-02T13:52:17.550085+00:00", "meta": {"OBJECT_NAME": "FENGYUN 1C DEB", "OBJECT_ID": "1999-025DUL", "EPOCH": "2025-12-01T17:16:14.280672", "MEAN_MOTION": 14.25927251, "ECCENTRICITY": 0.02665414, "INCLINATION": 98.503, "RA_OF_ASC_NODE": 329.193, "ARG_OF_PERICENTER": 261.2872, "MEAN_ANOMALY": 95.8036, "EPHEMERIS_TYPE": 0, "CLASSIFICATION_TYPE": "U", "NORAD_CAT_ID": 36211, "ELEMENT_SET_NO": 999, "REV_AT_EPOCH": 94212, "BSTAR": 0.00059239052, "MEAN_MOTION_DOT": 1.999e-05, "MEAN_MOTION_DDOT": 0}, "tle": {"line1": "1 36211U 99025DUL 25335.71960973  .00001999  00000+0  59239-3 0  9996", "line2": "2 36211  98.5030 329.1930 0266541 261.2872  95.8036 14.25927251942126"}}, "geometry": {"type": "Point", "coordinates": [-72.27295218715544, 77.46776551838335]}}]}